[{"OBJECT_NAME":"STARLINK-1286","OBJECT_ID":"2020-019BK","EPOCH":"2026-03-22T16:25:03.095904","MEAN_MOTION":15.51804189,"ECCENTRICITY":0.0003747,"INCLINATION":53.0489,"RA_OF_ASC_NODE":68.2379,"ARG_OF_PERICENTER":88.3416,"MEAN_ANOMALY":271.8022,"EPHEMERIS_TYPE":0,"CLASSIFICATION_TYPE":"U","NORAD_CAT_ID":45417,"ELEMENT_SET_NO":999,"REV_AT_EPOCH":33224,"BSTAR":0.00068649874,"MEAN_MOTION_DOT":0.00041489,"MEAN_MOTION_DDOT":0},{"OBJECT_NAME":"STARLINK-1308","OBJECT_ID":"2020-019BM","EPOCH":"2026-03-22T05:47:26.376000","MEAN_MOTION":15.52880062,"ECCENTRICITY":0.00051128,"INCLINATION":53.0534,"RA_OF_ASC_NODE":91.7205,"ARG_OF_PERICENTER":57.7918,"MEAN_ANOMALY":302.3587,"EPHEMERIS_TYPE":0,"CLASSIFICATION_TYPE":"U","NORAD_CAT_ID":45419,"ELEMENT_SET_NO":999,"REV_AT_EPOCH":33162,"BSTAR":0.00073070525,"MEAN_MOTION_DOT":0.00045983,"MEAN_MOTION_DDOT":0},{"OBJECT_NAME":"STARLINK-1329","OBJECT_ID":"2020-025A","EPOCH":"2026-03-22T22:00:01.999584","MEAN_MOTION":15.62566169,"ECCENTRICITY":0.00012381,"INCLINATION":53.0464,"RA_OF_ASC_NODE":17.1226,"ARG_OF_PERICENTER":99.3037,"MEAN_ANOMALY":237.1915,"EPHEMERIS_TYPE":0,"CLASSIFICATION_TYPE":"U","NORAD_CAT_ID":45531,"ELEMENT_SET_NO":999,"REV_AT_EPOCH":591,"BSTAR":0.011883089,"MEAN_MOTION_DOT":0.01203375,"MEAN_MOTION_DDOT":0},{"OBJECT_NAME":"STARLINK-1338","OBJECT_ID":"2020-025B","EPOCH":"2026-03-22T02:22:39.292896","MEAN_MOTION":15.5678868,"ECCENTRICITY":0.00048609,"INCLINATION":53.0497,"RA_OF_ASC_NODE":24.6445,"ARG_OF_PERICENTER":55.5662,"MEAN_ANOMALY":304.5808,"EPHEMERIS_TYPE":0,"CLASSIFICATION_TYPE":"U","NORAD_CAT_ID":45532,"ELEMENT_SET_NO":999,"REV_AT_EPOCH":32733,"BSTAR":0.00068617285,"MEAN_MOTION_DOT":0.00049877,"MEAN_MOTION_DDOT":0},{"OBJECT_NAME":"STARLINK-1350","OBJECT_ID":"2020-025E","EPOCH":"2026-03-22T22:21:42.793920","MEAN_MOTION":15.36473204,"ECCENTRICITY":0.00023559,"INCLINATION":53.072,"RA_OF_ASC_NODE":330.9381,"ARG_OF_PERICENTER":95.9301,"MEAN_ANOMALY":264.197,"EPHEMERIS_TYPE":0,"CLASSIFICATION_TYPE":"U","NORAD_CAT_ID":45535,"ELEMENT_SET_NO":999,"REV_AT_EPOCH":32819,"BSTAR":0.00035150037,"MEAN_MOTION_DOT":0.00012327,"MEAN_MOTION_DDOT":0},{"OBJECT_NAME":"STARLINK-1362","OBJECT_ID":"2020-025H","EPOCH":"2026-03-22T14:07:00.521472","MEAN_MOTION":15.29695582,"ECCENTRICITY":0.00014752,"INCLINATION":53.1626,"RA_OF_ASC_NODE":41.0844,"ARG_OF_PERICENTER":119.7421,"MEAN_ANOMALY":240.3726,"EPHEMERIS_TYPE":0,"CLASSIFICATION_TYPE":"U","NORAD_CAT_ID":45538,"ELEMENT_SET_NO":999,"REV_AT_EPOCH":32715,"BSTAR":-0.0060433625,"MEAN_MOTION_DOT":-0.00172563,"MEAN_MOTION_DDOT":0},{"OBJECT_NAME":"STARLINK-1368","OBJECT_ID":"2020-025K","EPOCH":"2026-03-22T14:20:52.813536","MEAN_MOTION":15.30199336,"ECCENTRICITY":0.00011817,"INCLINATION":53.161,"RA_OF_ASC_NODE":41.3681,"ARG_OF_PERICENTER":83.2373,"MEAN_ANOMALY":276.8762,"EPHEMERIS_TYPE":0,"CLASSIFICATION_TYPE":"U","NORAD_CAT_ID":45540,"ELEMENT_SET_NO":999,"REV_AT_EPOCH":32714,"BSTAR":9.4868738e-5,"MEAN_MOTION_DOT":2.452e-5,"MEAN_MOTION_DDOT":0},{"OBJECT_NAME":"STARLINK-1371","OBJECT_ID":"2020-025M","EPOCH":"2026-03-22T03:25:33.796128","MEAN_MOTION":15.49185646,"ECCENTRICITY":0.00023636,"INCLINATION":53.0506,"RA_OF_ASC_NODE":29.836,"ARG_OF_PERICENTER":77.5486,"MEAN_ANOMALY":282.5786,"EPHEMERIS_TYPE":0,"CLASSIFICATION_TYPE":"U","NORAD_CAT_ID":45542,"ELEMENT_SET_NO":999,"REV_AT_EPOCH":32726,"BSTAR":0.0021663847,"MEAN_MOTION_DOT":0.00121413,"MEAN_MOTION_DDOT":0},{"OBJECT_NAME":"STARLINK-1372","OBJECT_ID":"2020-025N","EPOCH":"2026-03-22T21:37:42.365856","MEAN_MOTION":15.30193384,"ECCENTRICITY":0.0001289,"INCLINATION":53.1608,"RA_OF_ASC_NODE":39.6577,"ARG_OF_PERICENTER":97.9205,"MEAN_ANOMALY":262.1942,"EPHEMERIS_TYPE":0,"CLASSIFICATION_TYPE":"U","NORAD_CAT_ID":45543,"ELEMENT_SET_NO":999,"REV_AT_EPOCH":32629,"BSTAR":1.404756e-5,"MEAN_MOTION_DOT":5.7e-7,"MEAN_MOTION_DDOT":0},{"OBJECT_NAME":"STARLINK-1373","OBJECT_ID":"2020-025P","EPOCH":"2026-03-22T13:50:26.618208","MEAN_MOTION":15.52996657,"ECCENTRICITY":0.00050053,"INCLINATION":53.0512,"RA_OF_ASC_NODE":26.9496,"ARG_OF_PERICENTER":66.2243,"MEAN_ANOMALY":293.9291,"EPHEMERIS_TYPE":0,"CLASSIFICATION_TYPE":"U","NORAD_CAT_ID":45544,"ELEMENT_SET_NO":999,"REV_AT_EPOCH":32734,"BSTAR":0.0010878004,"MEAN_MOTION_DOT":0.0006918,"MEAN_MOTION_DDOT":0},{"OBJECT_NAME":"STARLINK-1327","OBJECT_ID":"2020-025AA","EPOCH":"2026-03-22T22:53:28.175712","MEAN_MOTION":15.56514156,"ECCENTRICITY":0.00075066,"INCLINATION":53.0464,"RA_OF_ASC_NODE":2.4632,"ARG_OF_PERICENTER":108.0457,"MEAN_ANOMALY":252.1372,"EPHEMERIS_TYPE":0,"CLASSIFICATION_TYPE":"U","NORAD_CAT_ID":45555,"ELEMENT_SET_NO":999,"REV_AT_EPOCH":32771,"BSTAR":0.00091939494,"MEAN_MOTION_DOT":0.00066497,"MEAN_MOTION_DDOT":0},{"OBJECT_NAME":"STARLINK-1356","OBJECT_ID":"2020-025AK","EPOCH":"2026-03-22T12:46:04.675584","MEAN_MOTION":15.46760771,"ECCENTRICITY":0.00060549,"INCLINATION":53.052,"RA_OF_ASC_NODE":12.6127,"ARG_OF_PERICENTER":85.8997,"MEAN_ANOMALY":274.2701,"EPHEMERIS_TYPE":0,"CLASSIFICATION_TYPE":"U","NORAD_CAT_ID":45564,"ELEMENT_SET_NO":999,"REV_AT_EPOCH":32753,"BSTAR":0.0013621339,"MEAN_MOTION_DOT":0.00069546,"MEAN_MOTION_DDOT":0},{"OBJECT_NAME":"STARLINK-1357","OBJECT_ID":"2020-025AL","EPOCH":"2026-03-22T20:57:36.351360","MEAN_MOTION":15.58242646,"ECCENTRICITY":0.000437,"INCLINATION":53.0511,"RA_OF_ASC_NODE":334.0873,"ARG_OF_PERICENTER":156.1629,"MEAN_ANOMALY":203.9586,"EPHEMERIS_TYPE":0,"CLASSIFICATION_TYPE":"U","NORAD_CAT_ID":45565,"ELEMENT_SET_NO":999,"REV_AT_EPOCH":32811,"BSTAR":0.00093528389,"MEAN_MOTION_DOT":0.00072193,"MEAN_MOTION_DDOT":0},{"OBJECT_NAME":"STARLINK-1361","OBJECT_ID":"2020-025AN","EPOCH":"2026-03-22T22:01:14.387232","MEAN_MOTION":15.49883962,"ECCENTRICITY":0.00075605,"INCLINATION":53.0503,"RA_OF_ASC_NODE":10.5445,"ARG_OF_PERICENTER":82.4735,"MEAN_ANOMALY":277.7132,"EPHEMERIS_TYPE":0,"CLASSIFICATION_TYPE":"U","NORAD_CAT_ID":45567,"ELEMENT_SET_NO":999,"REV_AT_EPOCH":32760,"BSTAR":0.0007536115,"MEAN_MOTION_DOT":0.00042597,"MEAN_MOTION_DDOT":0},{"OBJECT_NAME":"STARLINK-1363","OBJECT_ID":"2020-025AP","EPOCH":"2026-03-22T22:21:06.093792","MEAN_MOTION":15.79968722,"ECCENTRICITY":0.00066551,"INCLINATION":53.0414,"RA_OF_ASC_NODE":331.4243,"ARG_OF_PERICENTER":109.6262,"MEAN_ANOMALY":250.5477,"EPHEMERIS_TYPE":0,"CLASSIFICATION_TYPE":"U","NORAD_CAT_ID":45568,"ELEMENT_SET_NO":999,"REV_AT_EPOCH":32814,"BSTAR":0.0007456346,"MEAN_MOTION_DOT":0.00143049,"MEAN_MOTION_DDOT":0},{"OBJECT_NAME":"STARLINK-1366","OBJECT_ID":"2020-025AQ","EPOCH":"2026-03-22T22:55:07.967712","MEAN_MOTION":15.78819903,"ECCENTRICITY":0.00069663,"INCLINATION":53.0418,"RA_OF_ASC_NODE":332.1824,"ARG_OF_PERICENTER":106.9691,"MEAN_ANOMALY":253.2094,"EPHEMERIS_TYPE":0,"CLASSIFICATION_TYPE":"U","NORAD_CAT_ID":45569,"ELEMENT_SET_NO":999,"REV_AT_EPOCH":32813,"BSTAR":0.00070019376,"MEAN_MOTION_DOT":0.00127223,"MEAN_MOTION_DDOT":0},{"OBJECT_NAME":"STARLINK-1376","OBJECT_ID":"2020-025AR","EPOCH":"2026-03-22T20:16:35.849568","MEAN_MOTION":15.31077454,"ECCENTRICITY":0.00015631,"INCLINATION":53.1593,"RA_OF_ASC_NODE":16.6696,"ARG_OF_PERICENTER":121.0305,"MEAN_ANOMALY":239.085,"EPHEMERIS_TYPE":0,"CLASSIFICATION_TYPE":"U","NORAD_CAT_ID":45570,"ELEMENT_SET_NO":999,"REV_AT_EPOCH":32751,"BSTAR":0.00094879106,"MEAN_MOTION_DOT":0.00028625,"MEAN_MOTION_DDOT":0},{"OBJECT_NAME":"STARLINK-1320","OBJECT_ID":"2020-025AT","EPOCH":"2026-03-22T22:08:03.953472","MEAN_MOTION":15.70717263,"ECCENTRICITY":0.00058894,"INCLINATION":53.0471,"RA_OF_ASC_NODE":280.3291,"ARG_OF_PERICENTER":93.7253,"MEAN_ANOMALY":266.4438,"EPHEMERIS_TYPE":0,"CLASSIFICATION_TYPE":"U","NORAD_CAT_ID":45572,"ELEMENT_SET_NO":999,"REV_AT_EPOCH":32888,"BSTAR":0.00067451675,"MEAN_MOTION_DOT":0.0008558,"MEAN_MOTION_DDOT":0},{"OBJECT_NAME":"STARLINK-1321","OBJECT_ID":"2020-025AU","EPOCH":"2026-03-22T18:52:55.768512","MEAN_MOTION":15.50548516,"ECCENTRICITY":0.00044578,"INCLINATION":53.0478,"RA_OF_ASC_NODE":355.6817,"ARG_OF_PERICENTER":109.7416,"MEAN_ANOMALY":250.4073,"EPHEMERIS_TYPE":0,"CLASSIFICATION_TYPE":"U","NORAD_CAT_ID":45573,"ELEMENT_SET_NO":999,"REV_AT_EPOCH":32749,"BSTAR":0.001034889,"MEAN_MOTION_DOT":0.00060165,"MEAN_MOTION_DDOT":0},{"OBJECT_NAME":"STARLINK-1331","OBJECT_ID":"2020-025AZ","EPOCH":"2026-03-22T22:10:18.375456","MEAN_MOTION":15.50473133,"ECCENTRICITY":0.00055065,"INCLINATION":53.053,"RA_OF_ASC_NODE":1.7125,"ARG_OF_PERICENTER":130.5571,"MEAN_ANOMALY":229.5918,"EPHEMERIS_TYPE":0,"CLASSIFICATION_TYPE":"U","NORAD_CAT_ID":45578,"ELEMENT_SET_NO":999,"REV_AT_EPOCH":32773,"BSTAR":0.0007317651,"MEAN_MOTION_DOT":0.00042204,"MEAN_MOTION_DDOT":0},{"OBJECT_NAME":"STARLINK-1333","OBJECT_ID":"2020-025BB","EPOCH":"2026-03-22T02:28:33.324672","MEAN_MOTION":15.30198717,"ECCENTRICITY":0.00012446,"INCLINATION":53.1628,"RA_OF_ASC_NODE":20.1495,"ARG_OF_PERICENTER":89.5263,"MEAN_ANOMALY":270.5881,"EPHEMERIS_TYPE":0,"CLASSIFICATION_TYPE":"U","NORAD_CAT_ID":45580,"ELEMENT_SET_NO":999,"REV_AT_EPOCH":32740,"BSTAR":9.3096021e-5,"MEAN_MOTION_DOT":2.399e-5,"MEAN_MOTION_DDOT":0},{"OBJECT_NAME":"STARLINK-1335","OBJECT_ID":"2020-025BC","EPOCH":"2026-03-22T20:07:25.353696","MEAN_MOTION":15.29358595,"ECCENTRICITY":0.00014675,"INCLINATION":53.1586,"RA_OF_ASC_NODE":14.0513,"ARG_OF_PERICENTER":91.1446,"MEAN_ANOMALY":268.9723,"EPHEMERIS_TYPE":0,"CLASSIFICATION_TYPE":"U","NORAD_CAT_ID":45581,"ELEMENT_SET_NO":999,"REV_AT_EPOCH":32754,"BSTAR":-4.9546521e-5,"MEAN_MOTION_DOT":-1.786e-5,"MEAN_MOTION_DDOT":0},{"OBJECT_NAME":"STARLINK-1337","OBJECT_ID":"2020-025BD","EPOCH":"2026-03-22T22:53:27.608928","MEAN_MOTION":15.60288605,"ECCENTRICITY":0.00051519,"INCLINATION":53.0532,"RA_OF_ASC_NODE":357.2365,"ARG_OF_PERICENTER":130.9322,"MEAN_ANOMALY":229.2137,"EPHEMERIS_TYPE":0,"CLASSIFICATION_TYPE":"U","NORAD_CAT_ID":45582,"ELEMENT_SET_NO":999,"REV_AT_EPOCH":32778,"BSTAR":0.00091394875,"MEAN_MOTION_DOT":0.00076311,"MEAN_MOTION_DDOT":0}]
